ONEWEB-0607             
1 54671U 22166AF  25252.14062752  .00000001  00000+0 -28761-4 0  9992
2 54671  87.9217 300.0537 0002045  92.1439 267.9929 13.21826829134415
ONEWEB-0608             
1 54672U 22166AG  25252.14690087  .00000159  00000+0  35325-3 0  9997
2 54672  87.9208 300.0364 0002417  88.5045 271.6366 13.21824645134421
ONEWEB-0610             
1 54673U 22166AH  25252.20368412  .00000009  00000+0 -10084-4 0  9990
2 54673  87.9218 300.0622 0002522  88.0445 272.0978 13.21824616134338
ONEWEB-0611             
1 54674U 22166AJ  25252.19733402  .00000130  00000+0  28217-3 0  9994
2 54674  87.9218 300.0595 0001754  98.0504 262.0829 13.21823843134325
ONEWEB-0612             
1 54675U 22166AK  25252.13428933  .00000017  00000+0  86293-5 0  9993
2 54675  87.9218 300.0498 0002109  92.3829 267.7547 13.21824084134305
ONEWEB-0615             
1 54676U 22166AL  25252.19104112  .00000059  00000+0  11087-3 0  9993
2 54676  87.9218 300.0652 0001933  94.6675 265.4680 13.21823609134323
ONEWEB-0655             
1 54677U 22166AM  25252.16427242  .00000110  00000+0  23549-3 0  9997
2 54677  87.9218 300.0755 0001950  85.6828 274.4529 13.21827409134310
ONEWEB-0659             
1 54678U 22166AN  25251.87879867 -.00000032  00000+0 -11012-3 0  9996
2 54678  87.9218 300.1330 0001974 100.0160 260.1197 13.21823060134365
